{
  "norad_id": 56812,
  "name": "STARLINK-6065",
  "history": [
    {
      "epoch": "2026-03-28T22:00:01.999584Z",
      "apogee_km": 574.2262763003591,
      "perigee_km": 570.0012188709024,
      "latitude_deg": 66.16860438084173,
      "longitude_deg": -115.5180058284391,
      "height_km": 585.0003739537293,
      "semi_major_axis_km": 6950.250747585631,
      "eccentricity": 0.00030395,
      "inclination_deg": 69.9993,
      "raan_deg": 275.8599,
      "arg_perigee_deg": 271.8706,
      "mean_anomaly_deg": 191.5692,
      "mean_motion_rev_day": 14.98311291
    },
    {
      "epoch": "2026-03-29T00:00:01.999296Z",
      "apogee_km": 574.2051870773603,
      "perigee_km": 569.9586033323903,
      "latitude_deg": -12.17040867158513,
      "longitude_deg": -86.29310088078162,
      "height_km": 576.4964015856588,
      "semi_major_axis_km": 6950.218895204875,
      "eccentricity": 0.0003055,
      "inclination_deg": 69.9991,
      "raan_deg": 275.6499,
      "arg_perigee_deg": 272.4351,
      "mean_anomaly_deg": 280.3722,
      "mean_motion_rev_day": 14.98321591
    }
  ]
}